[Satellite]
VERSION=1.1
NAME=GREENCUBE
NICKNAME=GREENCUBE
TLE1=1 53106U 22080B   22340.05508021 -.00000003  00000+0  00000+0 0  9991
TLE2=2 53106  70.1737  26.8203 0008955 228.4776 131.5115  6.42557513  9347
STATUS=0
